{
  "type": "FeatureCollection",
  "features": [
    {
      "type": "Feature",
      "properties": {
        "norad_id": 33412,
        "name": "COSMO-SKYMED 3",
        "group": "resource",
        "lat": -2.991560161917557,
        "lon": -152.32227354466136,
        "alt_km": 562.8686703804315,
        "timestamp": "2025-12-22T16:55:17.106811+00:00",
        "meta_object_name": "COSMO-SKYMED 3",
        "meta_object_id": "2008-054A",
        "meta_epoch": "2025-12-22T07:21:48.572352",
        "meta_mean_motion": 15.05431896,
        "meta_eccentricity": 0.00170473,
        "meta_inclination": 97.846,
        "meta_ra_of_asc_node": 206.86,
        "meta_arg_of_pericenter": 140.0927,
        "meta_mean_anomaly": 220.1555,
        "meta_ephemeris_type": 0,
        "meta_classification_type": "U",
        "meta_norad_cat_id": 33412,
        "meta_element_set_no": 999,
        "meta_rev_at_epoch": 93031,
        "meta_bstar": 0.00019894107,
        "meta_mean_motion_dot": 2.799e-05,
        "meta_mean_motion_ddot": 0,
        "tle_line1": "1 33412U 08054A   25356.30681218  .00002799  00000+0  19894-3 0  9990",
        "tle_line2": "2 33412  97.8460 206.8600 0017047 140.0927 220.1555 15.05431896930311"
      },
      "geometry": {
        "type": "Point",
        "coordinates": [
          -152.32227354466136,
          -2.991560161917557
        ]
      }
    },
    {
      "type": "Feature",
      "properties": {
        "norad_id": 33446,
        "name": "YAOGAN-4",
        "group": "resource",
        "lat": -64.03269462360737,
        "lon": 90.09895791695574,
        "alt_km": 621.3179371386423,
        "timestamp": "2025-12-22T16:55:17.106822+00:00",
        "meta_object_name": "YAOGAN-4",
        "meta_object_id": "2008-061A",
        "meta_epoch": "2025-12-22T06:06:00.446976",
        "meta_mean_motion": 14.82709029,
        "meta_eccentricity": 0.00130575,
        "meta_inclination": 97.9196,
        "meta_ra_of_asc_node": 286.2606,
        "meta_arg_of_pericenter": 289.7088,
        "meta_mean_anomaly": 70.2716,
        "meta_ephemeris_type": 0,
        "meta_classification_type": "U",
        "meta_norad_cat_id": 33446,
        "meta_element_set_no": 999,
        "meta_rev_at_epoch": 91944,
        "meta_bstar": 0.00016517331,
        "meta_mean_motion_dot": 1.281e-05,
        "meta_mean_motion_ddot": 0,
        "tle_line1": "1 33446U 08061A   25356.25417184  .00001281  00000+0  16517-3 0  9992",
        "tle_line2": "2 33446  97.9196 286.2606 0013057 289.7088  70.2716 14.82709029919443"
      },
      "geometry": {
        "type": "Point",
        "coordinates": [
          90.09895791695574,
          -64.03269462360737
        ]
      }
    },
    {
      "type": "Feature",
      "properties": {
        "norad_id": 33492,
        "name": "GOSAT (IBUKI)",
        "group": "resource",
        "lat": 64.23617935587258,
        "lon": -57.71877845237814,
        "alt_km": 661.9793664311128,
        "timestamp": "2025-12-22T16:55:17.106833+00:00",
        "meta_object_name": "GOSAT (IBUKI)",
        "meta_object_id": "2009-002A",
        "meta_epoch": "2025-12-22T06:35:00.130848",
        "meta_mean_motion": 14.67542964,
        "meta_eccentricity": 9.84e-05,
        "meta_inclination": 98.0771,
        "meta_ra_of_asc_node": 104.7451,
        "meta_arg_of_pericenter": 101.5857,
        "meta_mean_anomaly": 258.5458,
        "meta_ephemeris_type": 0,
        "meta_classification_type": "U",
        "meta_norad_cat_id": 33492,
        "meta_element_set_no": 999,
        "meta_rev_at_epoch": 90551,
        "meta_bstar": 0.00014887955,
        "meta_mean_motion_dot": 7.96e-06,
        "meta_mean_motion_ddot": 0,
        "tle_line1": "1 33492U 09002A   25356.27430707  .00000796  00000+0  14888-3 0  9996",
        "tle_line2": "2 33492  98.0771 104.7451 0000984 101.5857 258.5458 14.67542964905510"
      },
      "geometry": {
        "type": "Point",
        "coordinates": [
          -57.71877845237814,
          64.23617935587258
        ]
      }
    },
    {
      "type": "Feature",
      "properties": {
        "norad_id": 35681,
        "name": "DEIMOS-1",
        "group": "resource",
        "lat": 79.07932535296835,
        "lon": 21.47898611464874,
        "alt_km": 636.4262150685054,
        "timestamp": "2025-12-22T16:55:17.106844+00:00",
        "meta_object_name": "DEIMOS-1",
        "meta_object_id": "2009-041A",
        "meta_epoch": "2025-12-22T06:42:40.529664",
        "meta_mean_motion": 14.74965072,
        "meta_eccentricity": 0.00025744,
        "meta_inclination": 97.7148,
        "meta_ra_of_asc_node": 156.4389,
        "meta_arg_of_pericenter": 64.6084,
        "meta_mean_anomaly": 295.5392,
        "meta_ephemeris_type": 0,
        "meta_classification_type": "U",
        "meta_norad_cat_id": 35681,
        "meta_element_set_no": 999,
        "meta_rev_at_epoch": 88080,
        "meta_bstar": 7.6106164e-05,
        "meta_mean_motion_dot": 4.64e-06,
        "meta_mean_motion_ddot": 0,
        "tle_line1": "1 35681U 09041A   25356.27963576  .00000464  00000+0  76106-4 0  9990",
        "tle_line2": "2 35681  97.7148 156.4389 0002574  64.6084 295.5392 14.74965072880807"
      },
      "geometry": {
        "type": "Point",
        "coordinates": [
          21.47898611464874,
          79.07932535296835
        ]
      }
    },
    {
      "type": "Feature",
      "properties": {
        "norad_id": 35682,
        "name": "DUBAISAT-1",
        "group": "resource",
        "lat": 20.329974152675824,
        "lon": 124.2591251445249,
        "alt_km": 647.6644748270955,
        "timestamp": "2025-12-22T16:55:17.106855+00:00",
        "meta_object_name": "DUBAISAT-1",
        "meta_object_id": "2009-041B",
        "meta_epoch": "2025-12-21T22:54:53.737632",
        "meta_mean_motion": 14.74628327,
        "meta_eccentricity": 0.0009222,
        "meta_inclination": 97.9798,
        "meta_ra_of_asc_node": 126.4992,
        "meta_arg_of_pericenter": 281.3915,
        "meta_mean_anomaly": 78.6258,
        "meta_ephemeris_type": 0,
        "meta_classification_type": "U",
        "meta_norad_cat_id": 35682,
        "meta_element_set_no": 999,
        "meta_rev_at_epoch": 87897,
        "meta_bstar": 0.0001851,
        "meta_mean_motion_dot": 1.185e-05,
        "meta_mean_motion_ddot": 0,
        "tle_line1": "1 35682U 09041B   25355.95478863  .00001185  00000+0  18510-3 0  9990",
        "tle_line2": "2 35682  97.9798 126.4992 0009222 281.3915  78.6258 14.74628327878971"
      },
      "geometry": {
        "type": "Point",
        "coordinates": [
          124.2591251445249,
          20.329974152675824
        ]
      }
    },
    {
      "type": "Feature",
      "properties": {
        "norad_id": 35931,
        "name": "OCEANSAT-2",
        "group": "resource",
        "lat": 31.090391650206698,
        "lon": -8.707069938495373,
        "alt_km": 881.9964410995117,
        "timestamp": "2025-12-22T16:55:17.106865+00:00",
        "meta_object_name": "OCEANSAT-2",
        "meta_object_id": "2009-051A",
        "meta_epoch": "2025-12-22T06:28:40.338912",
        "meta_mean_motion": 13.99622969,
        "meta_eccentricity": 0.00159753,
        "meta_inclination": 98.2217,
        "meta_ra_of_asc_node": 355.9035,
        "meta_arg_of_pericenter": 20.0595,
        "meta_mean_anomaly": 340.1196,
        "meta_ephemeris_type": 0,
        "meta_classification_type": "U",
        "meta_norad_cat_id": 35931,
        "meta_element_set_no": 999,
        "meta_rev_at_epoch": 85458,
        "meta_bstar": -3.2598595e-05,
        "meta_mean_motion_dot": -8.5e-07,
        "meta_mean_motion_ddot": 0,
        "tle_line1": "1 35931U 09051A   25356.26991133 -.00000085  00000+0 -32599-4 0  9997",
        "tle_line2": "2 35931  98.2217 355.9035 0015975  20.0595 340.1196 13.99622969854580"
      },
      "geometry": {
        "type": "Point",
        "coordinates": [
          -8.707069938495373,
          31.090391650206698
        ]
      }
    },
    {
      "type": "Feature",
      "properties": {
        "norad_id": 35946,
        "name": "WORLDVIEW-2 (WV-2)",
        "group": "resource",
        "lat": 75.422863302793,
        "lon": 32.65630477337974,
        "alt_km": 755.9044771807821,
        "timestamp": "2025-12-22T16:55:17.106876+00:00",
        "meta_object_name": "WORLDVIEW-2 (WV-2)",
        "meta_object_id": "2009-055A",
        "meta_epoch": "2025-12-22T04:52:04.753056",
        "meta_mean_motion": 14.37728093,
        "meta_eccentricity": 0.00048476,
        "meta_inclination": 98.4776,
        "meta_ra_of_asc_node": 67.1575,
        "meta_arg_of_pericenter": 47.4569,
        "meta_mean_anomaly": 312.7026,
        "meta_ephemeris_type": 0,
        "meta_classification_type": "U",
        "meta_norad_cat_id": 35946,
        "meta_element_set_no": 999,
        "meta_rev_at_epoch": 85021,
        "meta_bstar": 7.3678839e-05,
        "meta_mean_motion_dot": 1.78e-06,
        "meta_mean_motion_ddot": 0,
        "tle_line1": "1 35946U 09055A   25356.20283279  .00000178  00000+0  73679-4 0  9991",
        "tle_line2": "2 35946  98.4776  67.1575 0004847  47.4569 312.7026 14.37728093850210"
      },
      "geometry": {
        "type": "Point",
        "coordinates": [
          32.65630477337974,
          75.422863302793
        ]
      }
    }
  ]
}